STARLINK-36853          
1 68097U 26042AE  26074.91668981 -.01691599  00000+0 -77533-2 0  9999
2 68097  53.1590 163.3680 0000947  78.9632 161.6761 15.85941886  3058
GLOBAL-34               
1 68098U 26043A   26071.99616608  .00008884  00000+0  29276-3 0  9993
2 68098  42.0214  56.4132 0006382 310.0598  49.9679 15.31580793  1076
STARLINK-37022          
1 68101U 26044A   26074.91668981 -.01863371  10000-2 -45329-2 0  9998
2 68101  97.2819  35.2666 0001178  91.4960 278.6650 15.96389696  2400
STARLINK-37046          
1 68102U 26044B   26074.91668981 -.01855722  99369-3 -44832-2 0  9994
2 68102  97.2819  35.2678 0001164  82.7646 289.3058 15.96516637  2401
STARLINK-37018          
1 68103U 26044C   26074.91668981 -.01863205  10028-2 -44674-2 0  9998
2 68103  97.2815  35.2689 0001273  77.3609 297.4618 15.96656523  2355
STARLINK-37041          
1 68104U 26044D   26074.91668981 -.01863719  10063-2 -44036-2 0  9990
2 68104  97.2817  35.2711 0001161  77.5532 302.2265 15.96927065  2352
STARLINK-37021          
1 68105U 26044E   26074.91668981 -.01863858  10079-2 -43717-2 0  9997
2 68105  97.2812  35.2716 0001241  85.2559 296.6575 15.97061667  2355
STARLINK-37024          
1 68106U 26044F   26074.91668981 -.01864493  10101-2 -43409-2 0  9998
2 68106  97.2812  35.2727 0001284  87.9591 296.3294 15.97197748  2355
STARLINK-37005          
1 68107U 26044G   26074.91668981 -.01861175  10022-2 -44308-2 0  9994
2 68107  97.2816  35.2695 0001221  80.1405 297.1449 15.96788274  2354
STARLINK-37017          
1 68108U 26044H   26074.91668981 -.01858827  10058-2 -42971-2 0  9998
2 68108  97.2813  35.2741 0001242  77.5481 309.4195 15.97327220  2357
STARLINK-36833          
1 68109U 26044J   26074.91668981 -.01851159  10010-2 -42172-2 0  9991
2 68109  97.2805  35.2759 0001272  85.9791 305.9008 15.97593782  2406
STARLINK-36830          
1 68110U 26044K   26074.91668981 -.01862979  10116-2 -42743-2 0  9996
2 68110  97.2808  35.2747 0001226  81.5800 308.0962 15.97465747  2402
