CCSDS_OMM_VERS = 2.0
CREATION_DATE  = 
ORIGINATOR     = 

OBJECT_NAME    = STARLINK-36853
OBJECT_ID      = 2026-042AE
CENTER_NAME    = EARTH
REF_FRAME      = TEME
TIME_SYSTEM    = UTC
MEAN_ELEMENT_THEORY = SGP/SGP4

EPOCH          = 2026-03-15T22:00:01.999584
MEAN_MOTION    = 15.85941886
ECCENTRICITY   = .00009479
INCLINATION    = 53.1590
RA_OF_ASC_NODE = 163.3680
ARG_OF_PERICENTER = 78.9632
MEAN_ANOMALY   = 161.6761

EPHEMERIS_TYPE = 0
CLASSIFICATION_TYPE = U
NORAD_CAT_ID   = 68097
ELEMENT_SET_NO = 999
REV_AT_EPOCH   = 305
BSTAR          = -.77533023E-2
MEAN_MOTION_DOT = -.1691599E-1
MEAN_MOTION_DDOT = 0

CCSDS_OMM_VERS = 2.0
CREATION_DATE  = 
ORIGINATOR     = 

OBJECT_NAME    = GLOBAL-34
OBJECT_ID      = 2026-043A
CENTER_NAME    = EARTH
REF_FRAME      = TEME
TIME_SYSTEM    = UTC
MEAN_ELEMENT_THEORY = SGP/SGP4

EPOCH          = 2026-03-12T23:54:28.749312
MEAN_MOTION    = 15.31580793
ECCENTRICITY   = .00063821
INCLINATION    = 42.0214
RA_OF_ASC_NODE = 56.4132
ARG_OF_PERICENTER = 310.0598
MEAN_ANOMALY   = 49.9679

EPHEMERIS_TYPE = 0
CLASSIFICATION_TYPE = U
NORAD_CAT_ID   = 68098
ELEMENT_SET_NO = 999
REV_AT_EPOCH   = 107
BSTAR          = .29276458E-3
MEAN_MOTION_DOT = .8884E-4
MEAN_MOTION_DDOT = 0

CCSDS_OMM_VERS = 2.0
CREATION_DATE  = 
ORIGINATOR     = 

OBJECT_NAME    = STARLINK-37022
OBJECT_ID      = 2026-044A
CENTER_NAME    = EARTH
REF_FRAME      = TEME
TIME_SYSTEM    = UTC
MEAN_ELEMENT_THEORY = SGP/SGP4

EPOCH          = 2026-03-15T22:00:01.999584
MEAN_MOTION    = 15.96389696
ECCENTRICITY   = .00011783
INCLINATION    = 97.2819
RA_OF_ASC_NODE = 35.2666
ARG_OF_PERICENTER = 91.4960
MEAN_ANOMALY   = 278.6650

EPHEMERIS_TYPE = 0
CLASSIFICATION_TYPE = U
NORAD_CAT_ID   = 68101
ELEMENT_SET_NO = 999
REV_AT_EPOCH   = 240
BSTAR          = -.45328578E-2
MEAN_MOTION_DOT = -.1863371E-1
MEAN_MOTION_DDOT = .10000069E-2

CCSDS_OMM_VERS = 2.0
CREATION_DATE  = 
ORIGINATOR     = 

OBJECT_NAME    = STARLINK-37046
OBJECT_ID      = 2026-044B
CENTER_NAME    = EARTH
REF_FRAME      = TEME
TIME_SYSTEM    = UTC
MEAN_ELEMENT_THEORY = SGP/SGP4

EPOCH          = 2026-03-15T22:00:01.999584
MEAN_MOTION    = 15.96516637
ECCENTRICITY   = .00011642
INCLINATION    = 97.2819
RA_OF_ASC_NODE = 35.2678
ARG_OF_PERICENTER = 82.7646
MEAN_ANOMALY   = 289.3058

EPHEMERIS_TYPE = 0
CLASSIFICATION_TYPE = U
NORAD_CAT_ID   = 68102
ELEMENT_SET_NO = 999
REV_AT_EPOCH   = 240
BSTAR          = -.44831646E-2
MEAN_MOTION_DOT = -.1855722E-1
MEAN_MOTION_DDOT = .99369179E-3

CCSDS_OMM_VERS = 2.0
CREATION_DATE  = 
ORIGINATOR     = 

OBJECT_NAME    = STARLINK-37018
OBJECT_ID      = 2026-044C
CENTER_NAME    = EARTH
REF_FRAME      = TEME
TIME_SYSTEM    = UTC
MEAN_ELEMENT_THEORY = SGP/SGP4

EPOCH          = 2026-03-15T22:00:01.999584
MEAN_MOTION    = 15.96656523
ECCENTRICITY   = .0001273
INCLINATION    = 97.2815
RA_OF_ASC_NODE = 35.2689
ARG_OF_PERICENTER = 77.3609
MEAN_ANOMALY   = 297.4618

EPHEMERIS_TYPE = 0
CLASSIFICATION_TYPE = U
NORAD_CAT_ID   = 68103
ELEMENT_SET_NO = 999
REV_AT_EPOCH   = 235
BSTAR          = -.44674277E-2
MEAN_MOTION_DOT = -.1863205E-1
MEAN_MOTION_DDOT = .1002774E-2

CCSDS_OMM_VERS = 2.0
CREATION_DATE  = 
ORIGINATOR     = 

OBJECT_NAME    = STARLINK-37041
OBJECT_ID      = 2026-044D
CENTER_NAME    = EARTH
REF_FRAME      = TEME
TIME_SYSTEM    = UTC
MEAN_ELEMENT_THEORY = SGP/SGP4

EPOCH          = 2026-03-15T22:00:01.999584
MEAN_MOTION    = 15.96927065
ECCENTRICITY   = .00011617
INCLINATION    = 97.2817
RA_OF_ASC_NODE = 35.2711
ARG_OF_PERICENTER = 77.5532
MEAN_ANOMALY   = 302.2265

EPHEMERIS_TYPE = 0
CLASSIFICATION_TYPE = U
NORAD_CAT_ID   = 68104
ELEMENT_SET_NO = 999
REV_AT_EPOCH   = 235
BSTAR          = -.44035896E-2
MEAN_MOTION_DOT = -.1863719E-1
MEAN_MOTION_DDOT = .1006289E-2

CCSDS_OMM_VERS = 2.0
CREATION_DATE  = 
ORIGINATOR     = 

OBJECT_NAME    = STARLINK-37021
OBJECT_ID      = 2026-044E
CENTER_NAME    = EARTH
REF_FRAME      = TEME
TIME_SYSTEM    = UTC
MEAN_ELEMENT_THEORY = SGP/SGP4

EPOCH          = 2026-03-15T22:00:01.999584
MEAN_MOTION    = 15.97061667
ECCENTRICITY   = .00012415
INCLINATION    = 97.2812
RA_OF_ASC_NODE = 35.2716
ARG_OF_PERICENTER = 85.2559
MEAN_ANOMALY   = 296.6575

EPHEMERIS_TYPE = 0
CLASSIFICATION_TYPE = U
NORAD_CAT_ID   = 68105
ELEMENT_SET_NO = 999
REV_AT_EPOCH   = 235
BSTAR          = -.43717402E-2
MEAN_MOTION_DOT = -.1863858E-1
MEAN_MOTION_DDOT = .10079273E-2

CCSDS_OMM_VERS = 2.0
CREATION_DATE  = 
ORIGINATOR     = 

OBJECT_NAME    = STARLINK-37024
OBJECT_ID      = 2026-044F
CENTER_NAME    = EARTH
REF_FRAME      = TEME
TIME_SYSTEM    = UTC
MEAN_ELEMENT_THEORY = SGP/SGP4

EPOCH          = 2026-03-15T22:00:01.999584
MEAN_MOTION    = 15.97197748
ECCENTRICITY   = .00012844
INCLINATION    = 97.2812
RA_OF_ASC_NODE = 35.2727
ARG_OF_PERICENTER = 87.9591
MEAN_ANOMALY   = 296.3294

EPHEMERIS_TYPE = 0
CLASSIFICATION_TYPE = U
NORAD_CAT_ID   = 68106
ELEMENT_SET_NO = 999
REV_AT_EPOCH   = 235
BSTAR          = -.43409056E-2
MEAN_MOTION_DOT = -.1864493E-1
MEAN_MOTION_DDOT = .10100953E-2

CCSDS_OMM_VERS = 2.0
CREATION_DATE  = 
ORIGINATOR     = 

OBJECT_NAME    = STARLINK-37005
OBJECT_ID      = 2026-044G
CENTER_NAME    = EARTH
REF_FRAME      = TEME
TIME_SYSTEM    = UTC
MEAN_ELEMENT_THEORY = SGP/SGP4

EPOCH          = 2026-03-15T22:00:01.999584
MEAN_MOTION    = 15.96788274
ECCENTRICITY   = .00012212
INCLINATION    = 97.2816
RA_OF_ASC_NODE = 35.2695
ARG_OF_PERICENTER = 80.1405
MEAN_ANOMALY   = 297.1449

EPHEMERIS_TYPE = 0
CLASSIFICATION_TYPE = U
NORAD_CAT_ID   = 68107
ELEMENT_SET_NO = 999
REV_AT_EPOCH   = 235
BSTAR          = -.44307587E-2
MEAN_MOTION_DOT = -.1861175E-1
MEAN_MOTION_DDOT = .1002173E-2

CCSDS_OMM_VERS = 2.0
CREATION_DATE  = 
ORIGINATOR     = 

OBJECT_NAME    = STARLINK-37017
OBJECT_ID      = 2026-044H
CENTER_NAME    = EARTH
REF_FRAME      = TEME
TIME_SYSTEM    = UTC
MEAN_ELEMENT_THEORY = SGP/SGP4

EPOCH          = 2026-03-15T22:00:01.999584
MEAN_MOTION    = 15.97327220
ECCENTRICITY   = .00012421
INCLINATION    = 97.2813
RA_OF_ASC_NODE = 35.2741
ARG_OF_PERICENTER = 77.5481
MEAN_ANOMALY   = 309.4195

EPHEMERIS_TYPE = 0
CLASSIFICATION_TYPE = U
NORAD_CAT_ID   = 68108
ELEMENT_SET_NO = 999
REV_AT_EPOCH   = 235
BSTAR          = -.42970986E-2
MEAN_MOTION_DOT = -.1858827E-1
MEAN_MOTION_DDOT = .1005777E-2

CCSDS_OMM_VERS = 2.0
CREATION_DATE  = 
ORIGINATOR     = 

OBJECT_NAME    = STARLINK-36833
OBJECT_ID      = 2026-044J
CENTER_NAME    = EARTH
REF_FRAME      = TEME
TIME_SYSTEM    = UTC
MEAN_ELEMENT_THEORY = SGP/SGP4

EPOCH          = 2026-03-15T22:00:01.999584
MEAN_MOTION    = 15.97593782
ECCENTRICITY   = .00012728
INCLINATION    = 97.2805
RA_OF_ASC_NODE = 35.2759
ARG_OF_PERICENTER = 85.9791
MEAN_ANOMALY   = 305.9008

EPHEMERIS_TYPE = 0
CLASSIFICATION_TYPE = U
NORAD_CAT_ID   = 68109
ELEMENT_SET_NO = 999
REV_AT_EPOCH   = 240
BSTAR          = -.42171783E-2
MEAN_MOTION_DOT = -.1851159E-1
MEAN_MOTION_DDOT = .1000953E-2

CCSDS_OMM_VERS = 2.0
CREATION_DATE  = 
ORIGINATOR     = 

OBJECT_NAME    = STARLINK-36830
OBJECT_ID      = 2026-044K
CENTER_NAME    = EARTH
REF_FRAME      = TEME
TIME_SYSTEM    = UTC
MEAN_ELEMENT_THEORY = SGP/SGP4

EPOCH          = 2026-03-15T22:00:01.999584
MEAN_MOTION    = 15.97465747
ECCENTRICITY   = .00012262
INCLINATION    = 97.2808
RA_OF_ASC_NODE = 35.2747
ARG_OF_PERICENTER = 81.5800
MEAN_ANOMALY   = 308.0962

EPHEMERIS_TYPE = 0
CLASSIFICATION_TYPE = U
NORAD_CAT_ID   = 68110
ELEMENT_SET_NO = 999
REV_AT_EPOCH   = 240
BSTAR          = -.4274319E-2
MEAN_MOTION_DOT = -.1862979E-1
MEAN_MOTION_DDOT = .1011564E-2

